      2.10          N: GNSS NAV DATA                        RINEX VERSION / TYPE
fic2rin                                 10/27/2018 00:22:34 PGM / RUN BY / DATE
                                                            END OF HEADER
16 18 10 26  4  0  0.0 2.306886017323e-06-1.932676241267e-12 0.000000000000e+00
    2.800000000000e+01-4.196875000000e+01 4.536617539759e-09 8.831307712214e-01
   -1.959502696991e-06 1.007450779434e-02 1.518055796623e-06 5.153712999344e+03
    4.464000000000e+05-3.539025783539e-08-1.113028243511e+00 1.173466444016e-07
    9.852638176099e-01 3.617187500000e+02 5.197290598186e-01-8.504282808943e-09
   -3.142988060926e-10 1.000000000000e+00 2.024000000000e+03 0.000000000000e+00
    2.400000000000e+00 0.000000000000e+00-1.071020960808e-08 2.800000000000e+01
    4.392060000000e+05 4.000000000000e+00
12 18 10 26  4  0  0.0 2.970127388835e-04-2.842170943040e-12 0.000000000000e+00
    2.900000000000e+01-4.271875000000e+01 4.364110354142e-09 2.760186468526e+00
   -2.339482307434e-06 7.037050207146e-03 1.452863216400e-06 5.153751945496e+03
    4.464000000000e+05-2.793967723846e-08-1.131946125185e+00-1.545995473862e-07
    9.848588497014e-01 3.607187500000e+02 1.023353840509e+00-8.162840015051e-09
   -2.189376910622e-10 1.000000000000e+00 2.024000000000e+03 0.000000000000e+00
    2.400000000000e+00 0.000000000000e+00-1.257285475731e-08 2.900000000000e+01
    4.392060000000e+05 4.000000000000e+00
 9 18 10 26  4  0  0.0 4.977076314390e-04-2.842170943040e-12 0.000000000000e+00
    3.200000000000e+01-1.578125000000e+01 4.470900516667e-09 3.833330442057e-01
   -9.462237358093e-07 1.285762176849e-03 1.165084540844e-05 5.153806747437e+03
    4.464000000000e+05-2.048909664154e-08 2.978186677612e+00-7.078051567078e-08
    9.530351354531e-01 1.485625000000e+02 1.688059833096e+00-7.976403677801e-09
   -4.782342060886e-10 1.000000000000e+00 2.024000000000e+03 0.000000000000e+00
    2.400000000000e+00 0.000000000000e+00 1.396983861923e-09 3.200000000000e+01
    4.392060000000e+05 4.000000000000e+00
15 18 10 26  4  0  0.0-3.419071435928e-04 1.250555214938e-12 0.000000000000e+00
    8.900000000000e+01-1.818750000000e+01 5.121999066106e-09-9.884427517624e-01
   -8.121132850647e-07 1.092561206315e-02 1.036934554577e-05 5.153585304260e+03
    4.464000000000e+05 2.291053533554e-07 2.903678665254e+00 1.564621925354e-07
    9.285105470941e-01 1.579375000000e+02 7.227124162845e-01-8.314989209819e-09
   -4.464471677451e-10 1.000000000000e+00 2.024000000000e+03 0.000000000000e+00
    2.400000000000e+00 0.000000000000e+00-1.117587089539e-08 8.900000000000e+01
    4.392060000000e+05 4.000000000000e+00
31 18 10 26  4  0  0.0 8.417433127761e-05-2.614797267597e-12 0.000000000000e+00
    2.600000000000e+01 1.434375000000e+02 4.511259340631e-09 3.120759627822e+00
    7.474794983864e-06 8.985763532110e-03 8.149072527885e-06 5.153775154114e+03
    4.464000000000e+05-1.098960638046e-07-2.215160203571e+00 7.450580596924e-09
    9.619451360304e-01 2.234062500000e+02-9.308402763195e-02-8.026762918323e-09
    4.671623163285e-10 1.000000000000e+00 2.024000000000e+03 0.000000000000e+00
    2.400000000000e+00 0.000000000000e+00-1.350417733192e-08 2.600000000000e+01
    4.392060000000e+05 4.000000000000e+00
27 18 10 26  4  0  0.0-9.692274034023e-06-4.661160346586e-12 0.000000000000e+00
    8.500000000000e+01-1.223750000000e+02 4.001952411667e-09-7.140981665407e-02
   -6.442889571190e-06 6.110511487350e-03 1.055374741554e-05 5.153703594208e+03
    4.464000000000e+05 6.146728992462e-08-1.533200774595e-01 5.029141902924e-08
    9.784031882486e-01 1.830937500000e+02 4.411465163231e-01-7.920329913532e-09
   -3.782300405137e-10 1.000000000000e+00 2.024000000000e+03 0.000000000000e+00
    2.400000000000e+00 0.000000000000e+00 1.862645149231e-09 8.500000000000e+01
    4.392060000000e+05 4.000000000000e+00
25 18 10 26  4  0  0.0-6.672693416476e-04-5.684341886081e-12 0.000000000000e+00
    6.700000000000e+01-2.990625000000e+01 4.682337895311e-09 2.397177613533e+00
   -1.657754182816e-06 7.532805670053e-03 1.264736056328e-06 5.153570320129e+03
    4.464000000000e+05-6.146728992462e-08-1.193635290078e+00-1.899898052216e-07
    9.723822753277e-01 3.607500000000e+02 8.555117468582e-01-8.346061932694e-09
   -9.857553463812e-11 1.000000000000e+00 2.024000000000e+03 0.000000000000e+00
    2.400000000000e+00 0.000000000000e+00 5.587935447693e-09 6.700000000000e+01
    4.392060000000e+05 4.000000000000e+00
24 18 10 26  4  0  0.0-5.728937685490e-05-5.684341886081e-13 0.000000000000e+00
    6.600000000000e+01 1.257500000000e+02 4.968778398136e-09-1.892139449169e+00
    6.318092346191e-06 7.477040751837e-03 7.690861821175e-06 5.153624135971e+03
    4.464000000000e+05 3.352761268616e-08-2.290654642572e+00-9.499490261078e-08
    9.405065777484e-01 2.212500000000e+02 5.415115618444e-01-8.246057767119e-09
    4.428755904031e-10 1.000000000000e+00 2.024000000000e+03 0.000000000000e+00
    2.400000000000e+00 0.000000000000e+00 2.793967723846e-09 6.600000000000e+01
    4.392060000000e+05 4.000000000000e+00
23 18 10 26  4  0  0.0-2.078139223158e-04 9.094947017729e-13 0.000000000000e+00
    6.600000000000e+01-1.071875000000e+01 4.683409368513e-09-1.472614709914e+00
   -5.997717380524e-07 1.263078115880e-02 1.118332147598e-05 5.153712503433e+03
    4.464000000000e+05 2.868473529816e-07 2.975132915119e+00-8.009374141693e-08
    9.438465411455e-01 1.482500000000e+02-2.323025913891e+00-7.972474942725e-09
   -4.050168705784e-10 1.000000000000e+00 2.024000000000e+03 0.000000000000e+00
    2.400000000000e+00 0.000000000000e+00-2.002343535423e-08 6.600000000000e+01
    4.392060000000e+05 4.000000000000e+00
21 18 10 26  4  0  0.0-3.151670098305e-04 6.252776074689e-12 0.000000000000e+00
    3.500000000000e+01 3.221875000000e+01 4.615192241282e-09 2.259424077236e+00
    1.532956957817e-06 2.437804208603e-02 1.029670238495e-05 5.153602153778e+03
    4.464000000000e+05 3.296881914139e-07 8.436005186392e-01-3.725290298462e-08
    9.456909955745e-01 1.645312500000e+02-1.516984020473e+00-7.652818770619e-09
    4.764484174176e-10 1.000000000000e+00 2.024000000000e+03 0.000000000000e+00
    2.400000000000e+00 0.000000000000e+00-9.778887033463e-09 3.500000000000e+01
    4.392060000000e+05 4.000000000000e+00
26 18 10 26  4  0  0.0 2.040434628725e-05 1.125499693444e-11 0.000000000000e+00
    4.400000000000e+01-2.268750000000e+01 5.297006355862e-09 1.841389045016e+00
   -1.018866896629e-06 3.077835892327e-03 5.941838026047e-07 5.153736913681e+03
    4.464000000000e+05 2.235174179077e-08-1.218334893179e+00 1.061707735062e-07
    9.538132147661e-01 3.640937500000e+02 4.220342815933e-02-8.825010454251e-09
   -1.142904749427e-10 1.000000000000e+00 2.024000000000e+03 0.000000000000e+00
    2.400000000000e+00 0.000000000000e+00 7.450580596924e-09 4.400000000000e+01
    4.392060000000e+05 4.000000000000e+00
20 18 10 26  4  0  0.0 5.178162828088e-04 5.684341886081e-13 0.000000000000e+00
    2.200000000000e+01 2.500000000000e-01 5.698451649099e-09-2.430279335941e+00
    2.030283212662e-07 4.409129847772e-03 3.734603524208e-06 5.153661962509e+03
    4.464000000000e+05-7.450580596924e-09 1.830521698085e+00 5.029141902924e-08
    9.287941717996e-01 2.880625000000e+02 2.142500159571e+00-8.680004414167e-09
    2.928693420408e-11 1.000000000000e+00 2.024000000000e+03 0.000000000000e+00
    2.400000000000e+00 0.000000000000e+00-8.381903171539e-09 2.200000000000e+01
    4.392060000000e+05 4.000000000000e+00
22 18 10 26  4  0  0.0-5.568698979914e-04-1.023181539495e-11 0.000000000000e+00
    9.100000000000e+01-4.968750000000e+00 5.809884862168e-09-8.451719062423e-01
   -1.527369022369e-07 7.008757209405e-03 4.224479198456e-06 5.153666067123e+03
    4.464000000000e+05-9.126961231232e-08 1.879940048032e+00 8.940696716309e-08
    9.255460372332e-01 2.805937500000e+02-1.468787448504e+00-8.885727269064e-09
    4.035882396416e-11 1.000000000000e+00 2.024000000000e+03 0.000000000000e+00
    2.400000000000e+00 0.000000000000e+00-1.816079020500e-08 9.100000000000e+01
    4.392060000000e+05 4.000000000000e+00
19 18 10 26  4  0  0.0-3.899936564267e-04 3.637978807092e-12 0.000000000000e+00
    8.300000000000e+01-1.030000000000e+02 3.832302487924e-09 2.675599867851e+00
   -5.360692739487e-06 9.518308681436e-03 1.069344580173e-05 5.153611635208e+03
    4.464000000000e+05 7.078051567078e-08-5.179169753780e-02-1.341104507446e-07
    9.814519578021e-01 1.809062500000e+02 1.303590702802e+00-7.553886078247e-09
   -2.742971398626e-10 1.000000000000e+00 2.024000000000e+03 0.000000000000e+00
    2.400000000000e+00 0.000000000000e+00-1.536682248116e-08 8.300000000000e+01
    4.392060000000e+05 4.000000000000e+00
30 18 10 26  4  0  0.0 4.780013114214e-06-5.570655048359e-12 0.000000000000e+00
    9.800000000000e+01 1.204375000000e+02 4.980207445630e-09-2.933159895094e+00
    6.336718797684e-06 3.606215468608e-03 7.718801498413e-06 5.153675828934e+03
    4.464000000000e+05-5.029141902924e-08-2.196965642723e+00-4.097819328308e-08
    9.428633446257e-01 2.248437500000e+02-2.975173142441e+00-8.293916903501e-09
    4.185888644778e-10 1.000000000000e+00 2.024000000000e+03 0.000000000000e+00
    2.400000000000e+00 0.000000000000e+00 3.725290298462e-09 9.800000000000e+01
    4.392060000000e+05 4.000000000000e+00
29 18 10 26  4  0  0.0 3.494564443827e-04-7.730704965070e-12 0.000000000000e+00
    6.000000000000e+01-1.001875000000e+02 3.747298947185e-09 4.618288337332e-01
   -5.299225449562e-06 6.990432739258e-04 1.119822263718e-05 5.153616111755e+03
    4.464000000000e+05-1.490116119385e-08-8.762414964612e-02 2.607703208923e-08
    9.851558089052e-01 1.758437500000e+02 1.660322910702e+00-7.641746880859e-09
   -2.639395655709e-10 1.000000000000e+00 2.024000000000e+03 0.000000000000e+00
    2.400000000000e+00 0.000000000000e+00-1.024454832077e-08 6.000000000000e+01
    4.392060000000e+05 4.000000000000e+00
